STARLINK-5228
1 54180U 22141Z   26090.83335647  .01326304  00000+0  14130-1 0  9992
2 54180  53.2169 258.8233 0001133  79.1989 305.7286 15.60774574  5842
